TYVAK-182A              
1 48271U 21034D   26140.62407975  .00003316  00000+0  23237-3 0  9997
2 48271  97.5740 200.0237 0007598  73.2192 286.9868 15.05873972275685
CSS (TIANHE)            
1 48274U 21035A   26140.45362132  .00012110  00000+0  14537-3 0  9992
2 48274  41.4675 130.6457 0007439 266.6271  93.3717 15.60697028288836
TYVAK-0130              
1 48606U 21041BF  26140.30055759  .00004328  00000+0  17318-3 0  9998
2 48606  52.9946 155.5509 0011443  81.5372 278.6922 15.27141551276126
HAIYANG-2D              
1 48621U 21043A   26140.67588503  .00000095  00000+0  16041-3 0  9994
2 48621  66.0002  13.1952 0011383 272.4762  87.5003 13.83373959252748
2021-050D               
1 48843U 21050D   26140.61264920  .00007485  00000+0  32082-3 0  9999
2 48843  97.3338 217.2812 0005697  19.8897 340.2561 15.23026532274760
TYVAK-0173              
1 48892U 21059P   26140.51179911  .00001091  00000+0  14213-3 0  9999
2 48892  96.0086 223.7487 0010902 118.8522 241.3792 14.81783987264145
MANDRAKE 2 ABLE         
1 48907U 21059AE  26140.49223399  .00015822  00000+0  24806-3 0  9999
2 48907  97.7044 328.1899 0006272  95.5013 264.6956 15.53776475272820
MANDRAKE 2 BAKER        
1 48908U 21059AF  26140.30964727  .00020365  00000+0  27259-3 0  9990
2 48908  97.7017 330.6776 0004878  95.5596 264.6216 15.58037691272957
PACE-1                  
1 48909U 21059AG  26140.05203889  .00060582  00000+0  40373-3 0  9995
2 48909  97.6788 335.1238 0002475  82.5999 277.5546 15.75212957273363
YAM-3                   
1 48915U 21059AN  26140.08136958  .00009106  00000+0  17681-3 0  9998
2 48915  97.6992 325.2154 0006675  97.5632 262.6376 15.47873829272646
FARADAY_PHOENIX         
1 48924U 21059AX  26140.32349725  .00079906  00000+0  61590-3 0  9996
2 48924  97.6849 335.4046 0004550  87.9209 272.2574 15.71717841273278
DEMO8 (TENZING)         
1 48951U 21059CA  26140.04513606  .00015564  00000+0  24341-3 0  9999
2 48951  97.7035 331.3459 0008353  91.1397 269.0813 15.53833180272936
NAPA-2                  
1 48963U 21059CN  26140.68067973  .00136635  00000+0  52678-3 0  9990
2 48963  97.6762 336.1851 0001410 115.7214 244.4202 15.86944486273435
FENGYUN 3E              
1 49008U 21062A   26140.57863057 -.00000062  00000+0 -87224-5 0  9993
2 49008  98.7494 144.2949 0002149 133.2249 226.9107 14.19900975252660
ISS (NAUKA)             
1 49044U 21066A   26140.52007259  .00005164  00000+0  10084-3 0  9990
2 49044  51.6328  77.0641 0007497  79.3410 280.8422 15.49283153567245
STARLINK-3100           
1 49144U 21082Q   26140.33487408  .00002622  00000+0  22733-3 0  9996
2 49144  69.9987 113.8034 0003543 264.7033  95.3722 14.98349478256718
CUTE                    
1 49263U 21088D   26140.51050038  .00134785  00000+0  71635-3 0  9990
2 49263  97.4208 237.3831 0002222 265.2594  94.8419 15.80103374258163
2021-091B               
1 49316U 21091B   26140.64666262  .00002179  00000+0  10903-3 0  9991
2 49316  97.4475 328.6436 0014483 131.9420 228.3052 15.18396857254807
SDGSAT 1                
1 49387U 21100A   26140.57886755  .00002063  00000+0  99415-4 0  9991
2 49387  97.2649 188.5511 0009120  40.0133 320.1773 15.19770449251729
TEIKYOSAT-4 (OORURI)    
1 49396U 21102B   26140.34471239  .00001171  00000+0  76941-4 0  9993
2 49396  97.3691 170.9101 0012947  36.1425 324.0677 15.09397031248529
Z-SAT                   
1 49399U 21102E   26140.58099196  .00003414  00000+0  17052-3 0  9999
2 49399  97.3337 176.7438 0016120 350.0515  10.0397 15.18031171249253
HIBARI                  
1 49400U 21102F   26140.36670293  .00007602  00000+0  25516-3 0  9998
2 49400  97.3254 186.5969 0009820 303.2831  56.7469 15.31108753249930
KOSEN-1                 
1 49402U 21102H   26140.54669080  .00004920  00000+0  19142-3 0  9990
2 49402  97.3202 183.2465 0012110 309.6347  50.3822 15.26409615249802
GLOBAL-14               
1 49469U 21106A   26140.56993871  .00017645  00000+0  31958-3 0  9994
2 49469  42.0043  95.0276 0015836 197.9266 162.1021 15.49144189253840
GAOFEN-3 02             
1 49495U 21109A   26140.57521494 -.00000080  00000+0 -11072-4 0  9998
2 49495  98.4091 149.0642 0004025  77.4961 282.6679 14.42212636236333
GLOBAL-12               
1 49772U 21115BA  26140.33134693  .00018078  00000+0  30288-3 0  9991
2 49772  53.1937 178.3010 0002979 357.7783   2.3213 15.51942834251579
GLOBAL-13               
1 49773U 21115BB  26140.31237656  .00011856  00000+0  25627-3 0  9991
2 49773  53.1956 186.9837 0003888  42.2023 317.9283 15.44968701251458
GLOBAL-17               
1 49949U 21120A   26140.60167698  .00019936  00000+0  34078-3 0  9999
2 49949  41.9940 213.4834 0011903  56.5788 303.6193 15.50776076250615
GLOBAL-16               
1 49950U 21120B   26140.51486163  .00017816  00000+0  32701-3 0  9998
2 49950  41.9943 217.2333 0010146  44.6669 315.4990 15.48838046250552
XW-3 (CAS-9)            
1 50466U 21131B   26140.63375274  .00000650  00000+0  21447-3 0  9990
2 50466  98.4968 233.1746 0004360 164.1628 195.9698 14.41329030231149
