OBJECT_NAME,OBJECT_ID,EPOCH,MEAN_MOTION,ECCENTRICITY,INCLINATION,RA_OF_ASC_NODE,ARG_OF_PERICENTER,MEAN_ANOMALY,EPHEMERIS_TYPE,CLASSIFICATION_TYPE,NORAD_CAT_ID,ELEMENT_SET_NO,REV_AT_EPOCH,BSTAR,MEAN_MOTION_DOT,MEAN_MOTION_DDOT
TYVAK-182A,2021-034D,2026-05-20T14:58:40.490400,15.05873972,.00075982,97.5740,200.0237,73.2192,286.9868,0,U,48271,999,27568,.23236717E-3,.3316E-4,0
CSS (TIANHE),2021-035A,2026-05-20T10:53:12.882048,15.60697028,.00074391,41.4675,130.6457,266.6271,93.3717,0,U,48274,999,28883,.1453717E-3,.1211E-3,0
TYVAK-0130,2021-041BF,2026-05-20T07:12:48.175776,15.27141551,.0011443,52.9946,155.5509,81.5372,278.6922,0,U,48606,999,27612,.17318202E-3,.4328E-4,0
HAIYANG-2D,2021-043A,2026-05-20T16:13:16.466592,13.83373959,.00113833,66.0002,13.1952,272.4762,87.5003,0,U,48621,999,25274,.16041364E-3,.95E-6,0
2021-050D,2021-050D,2026-05-20T14:42:12.890880,15.23026532,.00056978,97.3338,217.2812,19.8897,340.2561,0,U,48843,999,27476,.32081567E-3,.7485E-4,0
TYVAK-0173,2021-059P,2026-05-20T12:16:59.443104,14.81783987,.00109025,96.0086,223.7487,118.8522,241.3792,0,U,48892,999,26414,.14212757E-3,.1091E-4,0
MANDRAKE 2 ABLE,2021-059AE,2026-05-20T11:48:49.016736,15.53776475,.00062725,97.7044,328.1899,95.5013,264.6956,0,U,48907,999,27282,.24806063E-3,.15822E-3,0
MANDRAKE 2 BAKER,2021-059AF,2026-05-20T07:25:53.524128,15.58037691,.00048786,97.7017,330.6776,95.5596,264.6216,0,U,48908,999,27295,.27259105E-3,.20365E-3,0
PACE-1,2021-059AG,2026-05-20T01:14:56.160096,15.75212957,.00024752,97.6788,335.1238,82.5999,277.5546,0,U,48909,999,27336,.40372775E-3,.60582E-3,0
YAM-3,2021-059AN,2026-05-20T01:57:10.331712,15.47873829,.00066758,97.6992,325.2154,97.5632,262.6376,0,U,48915,999,27264,.17681151E-3,.9106E-4,0
FARADAY_PHOENIX,2021-059AX,2026-05-20T07:45:50.162400,15.71717841,.00045502,97.6849,335.4046,87.9209,272.2574,0,U,48924,999,27327,.61590131E-3,.79906E-3,0
DEMO8 (TENZING),2021-059CA,2026-05-20T01:04:59.755584,15.53833180,.0008353,97.7035,331.3459,91.1397,269.0813,0,U,48951,999,27293,.24340712E-3,.15564E-3,0
NAPA-2,2021-059CN,2026-05-20T16:20:10.728672,15.86944486,.000141,97.6762,336.1851,115.7214,244.4202,0,U,48963,999,27343,.52678E-3,.136635E-2,0
FENGYUN 3E,2021-062A,2026-05-20T13:53:13.681248,14.19900975,.00021498,98.7494,144.2949,133.2249,226.9107,0,U,49008,999,25266,-.8722384E-5,-.62E-6,0
ISS (NAUKA),2021-066A,2026-05-20T12:28:54.271776,15.49283153,.0007497,51.6328,77.0641,79.3410,280.8422,0,U,49044,999,56724,.10083512E-3,.5164E-4,0
STARLINK-3100,2021-082Q,2026-05-20T08:02:13.120512,14.98349478,.0003543,69.9987,113.8034,264.7033,95.3722,0,U,49144,999,25671,.22732874E-3,.2622E-4,0
CUTE,2021-088D,2026-05-20T12:15:07.232832,15.80103374,.00022223,97.4208,237.3831,265.2594,94.8419,0,U,49263,999,25816,.71635457E-3,.134785E-2,0
2021-091B,2021-091B,2026-05-20T15:31:11.650368,15.18396857,.00144832,97.4475,328.6436,131.9420,228.3052,0,U,49316,999,25480,.10903099E-3,.2179E-4,0
SDGSAT 1,2021-100A,2026-05-20T13:53:34.156320,15.19770449,.00091203,97.2649,188.5511,40.0133,320.1773,0,U,49387,999,25172,.99414558E-4,.2063E-4,0
TEIKYOSAT-4 (OORURI),2021-102B,2026-05-20T08:16:23.150496,15.09397031,.00129475,97.3691,170.9101,36.1425,324.0677,0,U,49396,999,24852,.7694121E-4,.1171E-4,0
Z-SAT,2021-102E,2026-05-20T13:56:37.705344,15.18031171,.00161206,97.3337,176.7438,350.0515,10.0397,0,U,49399,999,24925,.17052039E-3,.3414E-4,0
HIBARI,2021-102F,2026-05-20T08:48:03.133152,15.31108753,.00098202,97.3254,186.5969,303.2831,56.7469,0,U,49400,999,24993,.25515661E-3,.7602E-4,0
KOSEN-1,2021-102H,2026-05-20T13:07:14.085120,15.26409615,.00121101,97.3202,183.2465,309.6347,50.3822,0,U,49402,999,24980,.19141689E-3,.492E-4,0
GLOBAL-14,2021-106A,2026-05-20T13:40:42.704544,15.49144189,.00158363,42.0043,95.0276,197.9266,162.1021,0,U,49469,999,25384,.31957616E-3,.17645E-3,0
GAOFEN-3 02,2021-109A,2026-05-20T13:48:18.570816,14.42212636,.00040258,98.4091,149.0642,77.4961,282.6679,0,U,49495,999,23633,-.11071913E-4,-.8E-6,0
GLOBAL-12,2021-115BA,2026-05-20T07:57:08.374752,15.51942834,.00029798,53.1937,178.3010,357.7783,2.3213,0,U,49772,999,25157,.30288027E-3,.18078E-3,0
GLOBAL-13,2021-115BB,2026-05-20T07:29:49.334784,15.44968701,.00038889,53.1956,186.9837,42.2023,317.9283,0,U,49773,999,25145,.25627325E-3,.11856E-3,0
GLOBAL-17,2021-120A,2026-05-20T14:26:24.891072,15.50776076,.0011903,41.9940,213.4834,56.5788,303.6193,0,U,49949,999,25061,.34078198E-3,.19936E-3,0
GLOBAL-16,2021-120B,2026-05-20T12:21:24.044832,15.48838046,.0010146,41.9943,217.2333,44.6669,315.4990,0,U,49950,999,25055,.32701069E-3,.17816E-3,0
XW-3 (CAS-9),2021-131B,2026-05-20T15:12:36.236736,14.41329030,.00043601,98.4968,233.1746,164.1628,195.9698,0,U,50466,999,23114,.21446858E-3,.65E-5,0
